SL-16 R/B               
1 22803U 93059B   26106.80242962 -.00000125  00000+0 -37862-4 0  9998
2 22803  70.9893 290.7542 0016258 159.3394 200.8391 14.17239272684939
ARIANE 40 R/B           
1 22830U 93061H   26106.61629908  .00000120  00000+0  59695-4 0  9990
2 22830  98.4854 174.7428 0011122 165.9976 194.1519 14.32880830699537
COSMOS 2278             
1 23087U 94023A   26106.92994134  .00000342  00000+0  20349-3 0  9993
2 23087  71.0513  95.0902 0009897 319.3996  40.6388 14.14381211650216
SL-16 R/B               
1 23088U 94023B   26106.95912296 -.00000255  00000+0 -10716-3 0  9998
2 23088  71.0019 350.5198 0005537 252.2038 107.8481 14.15018125651508
SL-16 R/B               
1 23343U 94074B   26106.82529399  .00000242  00000+0  38972-4 0  9991
2 23343  97.7052 136.0886 0008118  96.3414  76.7600 14.79449659692881
SL-16 R/B               
1 23405U 94077B   26106.71384441  .00000196  00000+0  12441-3 0  9998
2 23405  70.9812 272.4910 0000995 156.2249 203.8920 14.15567715621612
ARIANE 40+ R/B          
1 23561U 95021B   26106.63501443  .00000160  00000+0  64861-4 0  9990
2 23561  98.4439 177.5916 0007292  38.0254  90.2149 14.39798929624709
SL-16 R/B               
1 23705U 95058B   26106.72268671  .00000227  00000+0  14047-3 0  9997
2 23705  71.0195 100.4050 0010654  55.7813 304.4318 14.15503731573230
SL-16 R/B               
1 24298U 96051B   26106.70109664  .00000035  00000+0  45702-4 0  9993
2 24298  70.7569  94.7826 0012636  83.2420 277.0137 14.12425460527015
ORBVIEW 2 (SEASTAR)     
1 24883U 97037A   26106.89305173  .00000148  00000+0  67788-4 0  9994
2 24883  98.8630 272.2301 0001395 333.2105  26.9007 14.35520942513955
SL-16 R/B               
1 25400U 98043G   26106.61968740  .00000010  00000+0  23019-4 0  9990
2 25400  98.8316  60.2672 0008748 264.2912  95.7270 14.26058317444395
SL-16 R/B               
1 25407U 98045B   26106.71492007 -.00000014  00000+0  17202-4 0  9990
2 25407  71.0092 101.6072 0008978 314.5216  45.5173 14.16199089432484
ISS (ZARYA)             
1 25544U 98067A   26106.84451400  .00004242  00000+0  85733-4 0  9992
2 25544  51.6329 243.6903 0006573 315.5681  44.4780 15.48789484562249
CZ-4B R/B               
1 25732U 99025C   26106.85410745  .00000019  00000+0  29962-4 0  9994
2 25732  98.6553 150.2178 0036216 234.0356 299.7349 14.18272722393578
OKEAN-O                 
1 25860U 99039A   26106.90902685  .00000347  00000+0  52331-4 0  9996
2 25860  97.9369 166.3970 0001267 115.5411 244.5933 14.80393543440044
SL-16 R/B               
1 25861U 99039B   26106.92057164  .00000289  00000+0  43335-4 0  9991
2 25861  97.9891 165.9446 0015899 130.2148 230.0459 14.81782093442526
DELTA 2 R/B             
1 25876U 99041E   26106.80934293  .00000215  00000+0  75082-4 0  9997
2 25876  51.7597 148.9961 0502535 100.8380 264.9506 14.11918394368417
