[{"OBJECT_NAME":"SL-16 R/B","OBJECT_ID":"1993-059B","EPOCH":"2026-04-16T19:15:29.919168","MEAN_MOTION":14.17239272,"ECCENTRICITY":0.00162585,"INCLINATION":70.9893,"RA_OF_ASC_NODE":290.7542,"ARG_OF_PERICENTER":159.3394,"MEAN_ANOMALY":200.8391,"EPHEMERIS_TYPE":0,"CLASSIFICATION_TYPE":"U","NORAD_CAT_ID":22803,"ELEMENT_SET_NO":999,"REV_AT_EPOCH":68493,"BSTAR":-3.7862322e-5,"MEAN_MOTION_DOT":-1.25e-6,"MEAN_MOTION_DDOT":0},{"OBJECT_NAME":"ARIANE 40 R/B","OBJECT_ID":"1993-061H","EPOCH":"2026-04-16T14:47:28.240512","MEAN_MOTION":14.3288083,"ECCENTRICITY":0.00111222,"INCLINATION":98.4854,"RA_OF_ASC_NODE":174.7428,"ARG_OF_PERICENTER":165.9976,"MEAN_ANOMALY":194.1519,"EPHEMERIS_TYPE":0,"CLASSIFICATION_TYPE":"U","NORAD_CAT_ID":22830,"ELEMENT_SET_NO":999,"REV_AT_EPOCH":69953,"BSTAR":5.9695498e-5,"MEAN_MOTION_DOT":1.2e-6,"MEAN_MOTION_DDOT":0},{"OBJECT_NAME":"COSMOS 2278","OBJECT_ID":"1994-023A","EPOCH":"2026-04-16T22:19:06.931776","MEAN_MOTION":14.14381211,"ECCENTRICITY":0.00098977,"INCLINATION":71.0513,"RA_OF_ASC_NODE":95.0902,"ARG_OF_PERICENTER":319.3996,"MEAN_ANOMALY":40.6388,"EPHEMERIS_TYPE":0,"CLASSIFICATION_TYPE":"U","NORAD_CAT_ID":23087,"ELEMENT_SET_NO":999,"REV_AT_EPOCH":65021,"BSTAR":0.00020348664,"MEAN_MOTION_DOT":3.42e-6,"MEAN_MOTION_DDOT":0},{"OBJECT_NAME":"SL-16 R/B","OBJECT_ID":"1994-023B","EPOCH":"2026-04-16T23:01:08.223744","MEAN_MOTION":14.15018125,"ECCENTRICITY":0.00055373,"INCLINATION":71.0019,"RA_OF_ASC_NODE":350.5198,"ARG_OF_PERICENTER":252.2038,"MEAN_ANOMALY":107.8481,"EPHEMERIS_TYPE":0,"CLASSIFICATION_TYPE":"U","NORAD_CAT_ID":23088,"ELEMENT_SET_NO":999,"REV_AT_EPOCH":65150,"BSTAR":-0.00010715652,"MEAN_MOTION_DOT":-2.55e-6,"MEAN_MOTION_DDOT":0},{"OBJECT_NAME":"SL-16 R/B","OBJECT_ID":"1994-074B","EPOCH":"2026-04-16T19:48:25.400736","MEAN_MOTION":14.79449659,"ECCENTRICITY":0.00081187,"INCLINATION":97.7052,"RA_OF_ASC_NODE":136.0886,"ARG_OF_PERICENTER":96.3414,"MEAN_ANOMALY":76.76,"EPHEMERIS_TYPE":0,"CLASSIFICATION_TYPE":"U","NORAD_CAT_ID":23343,"ELEMENT_SET_NO":999,"REV_AT_EPOCH":69288,"BSTAR":3.8971797e-5,"MEAN_MOTION_DOT":2.42e-6,"MEAN_MOTION_DDOT":0},{"OBJECT_NAME":"SL-16 R/B","OBJECT_ID":"1994-077B","EPOCH":"2026-04-16T17:07:56.157024","MEAN_MOTION":14.15567715,"ECCENTRICITY":9.954e-5,"INCLINATION":70.9812,"RA_OF_ASC_NODE":272.491,"ARG_OF_PERICENTER":156.2249,"MEAN_ANOMALY":203.892,"EPHEMERIS_TYPE":0,"CLASSIFICATION_TYPE":"U","NORAD_CAT_ID":23405,"ELEMENT_SET_NO":999,"REV_AT_EPOCH":62161,"BSTAR":0.00012440504,"MEAN_MOTION_DOT":1.96e-6,"MEAN_MOTION_DDOT":0},{"OBJECT_NAME":"ARIANE 40+ R/B","OBJECT_ID":"1995-021B","EPOCH":"2026-04-16T15:14:25.246752","MEAN_MOTION":14.39798929,"ECCENTRICITY":0.00072925,"INCLINATION":98.4439,"RA_OF_ASC_NODE":177.5916,"ARG_OF_PERICENTER":38.0254,"MEAN_ANOMALY":90.2149,"EPHEMERIS_TYPE":0,"CLASSIFICATION_TYPE":"U","NORAD_CAT_ID":23561,"ELEMENT_SET_NO":999,"REV_AT_EPOCH":62470,"BSTAR":6.4861034e-5,"MEAN_MOTION_DOT":1.6e-6,"MEAN_MOTION_DDOT":0},{"OBJECT_NAME":"SL-16 R/B","OBJECT_ID":"1995-058B","EPOCH":"2026-04-16T17:20:40.131744","MEAN_MOTION":14.15503731,"ECCENTRICITY":0.0010654,"INCLINATION":71.0195,"RA_OF_ASC_NODE":100.405,"ARG_OF_PERICENTER":55.7813,"MEAN_ANOMALY":304.4318,"EPHEMERIS_TYPE":0,"CLASSIFICATION_TYPE":"U","NORAD_CAT_ID":23705,"ELEMENT_SET_NO":999,"REV_AT_EPOCH":57323,"BSTAR":0.00014047381,"MEAN_MOTION_DOT":2.27e-6,"MEAN_MOTION_DDOT":0},{"OBJECT_NAME":"SL-16 R/B","OBJECT_ID":"1996-051B","EPOCH":"2026-04-16T16:49:34.749696","MEAN_MOTION":14.1242546,"ECCENTRICITY":0.0012636,"INCLINATION":70.7569,"RA_OF_ASC_NODE":94.7826,"ARG_OF_PERICENTER":83.242,"MEAN_ANOMALY":277.0137,"EPHEMERIS_TYPE":0,"CLASSIFICATION_TYPE":"U","NORAD_CAT_ID":24298,"ELEMENT_SET_NO":999,"REV_AT_EPOCH":52701,"BSTAR":4.5701682e-5,"MEAN_MOTION_DOT":3.5e-7,"MEAN_MOTION_DDOT":0},{"OBJECT_NAME":"ORBVIEW 2 (SEASTAR)","OBJECT_ID":"1997-037A","EPOCH":"2026-04-16T21:25:59.669472","MEAN_MOTION":14.35520942,"ECCENTRICITY":0.0001395,"INCLINATION":98.863,"RA_OF_ASC_NODE":272.2301,"ARG_OF_PERICENTER":333.2105,"MEAN_ANOMALY":26.9007,"EPHEMERIS_TYPE":0,"CLASSIFICATION_TYPE":"U","NORAD_CAT_ID":24883,"ELEMENT_SET_NO":999,"REV_AT_EPOCH":51395,"BSTAR":6.7787848e-5,"MEAN_MOTION_DOT":1.48e-6,"MEAN_MOTION_DDOT":0},{"OBJECT_NAME":"SL-16 R/B","OBJECT_ID":"1998-043G","EPOCH":"2026-04-16T14:52:20.991360","MEAN_MOTION":14.26058317,"ECCENTRICITY":0.00087482,"INCLINATION":98.8316,"RA_OF_ASC_NODE":60.2672,"ARG_OF_PERICENTER":264.2912,"MEAN_ANOMALY":95.727,"EPHEMERIS_TYPE":0,"CLASSIFICATION_TYPE":"U","NORAD_CAT_ID":25400,"ELEMENT_SET_NO":999,"REV_AT_EPOCH":44439,"BSTAR":2.3019423e-5,"MEAN_MOTION_DOT":1.0e-7,"MEAN_MOTION_DDOT":0},{"OBJECT_NAME":"SL-16 R/B","OBJECT_ID":"1998-045B","EPOCH":"2026-04-16T17:09:29.094048","MEAN_MOTION":14.16199089,"ECCENTRICITY":0.00089789,"INCLINATION":71.0092,"RA_OF_ASC_NODE":101.6072,"ARG_OF_PERICENTER":314.5216,"MEAN_ANOMALY":45.5173,"EPHEMERIS_TYPE":0,"CLASSIFICATION_TYPE":"U","NORAD_CAT_ID":25407,"ELEMENT_SET_NO":999,"REV_AT_EPOCH":43248,"BSTAR":1.7201992e-5,"MEAN_MOTION_DOT":-1.4e-7,"MEAN_MOTION_DDOT":0},{"OBJECT_NAME":"ISS (ZARYA)","OBJECT_ID":"1998-067A","EPOCH":"2026-04-16T20:16:06.009600","MEAN_MOTION":15.48789484,"ECCENTRICITY":0.00065733,"INCLINATION":51.6329,"RA_OF_ASC_NODE":243.6903,"ARG_OF_PERICENTER":315.5681,"MEAN_ANOMALY":44.478,"EPHEMERIS_TYPE":0,"CLASSIFICATION_TYPE":"U","NORAD_CAT_ID":25544,"ELEMENT_SET_NO":999,"REV_AT_EPOCH":56224,"BSTAR":8.5733361e-5,"MEAN_MOTION_DOT":4.242e-5,"MEAN_MOTION_DDOT":0},{"OBJECT_NAME":"CZ-4B R/B","OBJECT_ID":"1999-025C","EPOCH":"2026-04-16T20:29:54.883680","MEAN_MOTION":14.18272722,"ECCENTRICITY":0.00362167,"INCLINATION":98.6553,"RA_OF_ASC_NODE":150.2178,"ARG_OF_PERICENTER":234.0356,"MEAN_ANOMALY":299.7349,"EPHEMERIS_TYPE":0,"CLASSIFICATION_TYPE":"U","NORAD_CAT_ID":25732,"ELEMENT_SET_NO":999,"REV_AT_EPOCH":39357,"BSTAR":2.9961636e-5,"MEAN_MOTION_DOT":1.9e-7,"MEAN_MOTION_DDOT":0},{"OBJECT_NAME":"OKEAN-O","OBJECT_ID":"1999-039A","EPOCH":"2026-04-16T21:48:59.919840","MEAN_MOTION":14.80393543,"ECCENTRICITY":0.00012671,"INCLINATION":97.9369,"RA_OF_ASC_NODE":166.397,"ARG_OF_PERICENTER":115.5411,"MEAN_ANOMALY":244.5933,"EPHEMERIS_TYPE":0,"CLASSIFICATION_TYPE":"U","NORAD_CAT_ID":25860,"ELEMENT_SET_NO":999,"REV_AT_EPOCH":44004,"BSTAR":5.2330915e-5,"MEAN_MOTION_DOT":3.47e-6,"MEAN_MOTION_DDOT":0},{"OBJECT_NAME":"SL-16 R/B","OBJECT_ID":"1999-039B","EPOCH":"2026-04-16T22:05:37.389696","MEAN_MOTION":14.81782093,"ECCENTRICITY":0.00158992,"INCLINATION":97.9891,"RA_OF_ASC_NODE":165.9446,"ARG_OF_PERICENTER":130.2148,"MEAN_ANOMALY":230.0459,"EPHEMERIS_TYPE":0,"CLASSIFICATION_TYPE":"U","NORAD_CAT_ID":25861,"ELEMENT_SET_NO":999,"REV_AT_EPOCH":44252,"BSTAR":4.3335499e-5,"MEAN_MOTION_DOT":2.89e-6,"MEAN_MOTION_DDOT":0},{"OBJECT_NAME":"DELTA 2 R/B","OBJECT_ID":"1999-041E","EPOCH":"2026-04-16T19:25:27.229152","MEAN_MOTION":14.11918394,"ECCENTRICITY":0.05025351,"INCLINATION":51.7597,"RA_OF_ASC_NODE":148.9961,"ARG_OF_PERICENTER":100.838,"MEAN_ANOMALY":264.9506,"EPHEMERIS_TYPE":0,"CLASSIFICATION_TYPE":"U","NORAD_CAT_ID":25876,"ELEMENT_SET_NO":999,"REV_AT_EPOCH":36841,"BSTAR":7.5082021e-5,"MEAN_MOTION_DOT":2.15e-6,"MEAN_MOTION_DDOT":0}]
